[{"OBJECT_NAME":"NANOSATC-BR1","OBJECT_ID":"2014-033Q","EPOCH":"2026-03-09T23:35:03.168384","MEAN_MOTION":15.28136801,"ECCENTRICITY":0.00046435,"INCLINATION":98.0845,"RA_OF_ASC_NODE":92.7804,"ARG_OF_PERICENTER":147.6715,"MEAN_ANOMALY":212.4808,"EPHEMERIS_TYPE":0,"CLASSIFICATION_TYPE":"U","NORAD_CAT_ID":40024,"ELEMENT_SET_NO":999,"REV_AT_EPOCH":63881,"BSTAR":0.00074295057,"MEAN_MOTION_DOT":0.00020336,"MEAN_MOTION_DDOT":0},{"OBJECT_NAME":"STARLINK-36076","OBJECT_ID":"2025-270A","EPOCH":"2026-03-08T23:59:56.709888","MEAN_MOTION":15.27585628,"ECCENTRICITY":5.93e-5,"INCLINATION":42.9986,"RA_OF_ASC_NODE":59.7942,"ARG_OF_PERICENTER":258.8349,"MEAN_ANOMALY":101.2436,"EPHEMERIS_TYPE":0,"CLASSIFICATION_TYPE":"U","NORAD_CAT_ID":66588,"ELEMENT_SET_NO":999,"REV_AT_EPOCH":1760,"BSTAR":0.00098624046,"MEAN_MOTION_DOT":0.00026981,"MEAN_MOTION_DDOT":0}]
